{
"type": "FeatureCollection",
"crs": { "type": "name", "properties": { "name": "urn:ogc:def:crs:OGC:1.3:CRS84" } },
"features": [
{ "type": "Feature", "properties": { "name_en": "Malmi Health Station", "address_zip": "00700", "address_city_en": "Helsinki", "service_en": "health stations", "datanomistaja": "Palvelukartta", "physician_cnt": "25" }, "geometry": { "type": "Point", "coordinates": [ 25.001263634570289, 60.253940862389285 ] } },
{ "type": "Feature", "properties": { "name_en": "Malmi Hospital Acute Wards", "address_zip": "00700", "address_city_en": "Helsinki", "service_en": "city or municipal hospitals", "datanomistaja": "Palvelukartta", "physician_cnt": "80" }, "geometry": { "type": "Point", "coordinates": [ 24.998795448958131, 60.253813855042118 ] } },
{ "type": "Feature", "properties": { "name_en": "Vuosaari Health Station", "address_zip": "00980", "address_city_en": "Helsinki", "service_en": "health stations", "datanomistaja": "Palvelukartta", "physician_cnt": "17" }, "geometry": { "type": "Point", "coordinates": [ 25.146616792748119, 60.205997041898627 ] } },
{ "type": "Feature", "properties": { "name_en": "Haaga Health Station", "address_zip": "00400", "address_city_en": "Helsinki", "service_en": "health stations", "datanomistaja": "Palvelukartta", "physician_cnt": "11" }, "geometry": { "type": "Point", "coordinates": [ 24.904142238333343, 60.222245331178655 ] } },
{ "type": "Feature", "properties": { "name_en": "Suutarila Health Station", "address_zip": "00740", "address_city_en": "Helsinki", "service_en": "health stations", "datanomistaja": "Palvelukartta", "physician_cnt": "8" }, "geometry": { "type": "Point", "coordinates": [ 24.998420930144487, 60.275633699763247 ] } },
{ "type": "Feature", "properties": { "name_en": "Puistola Health Station", "address_zip": "00750", "address_city_en": "Helsinki", "service_en": "health stations", "datanomistaja": "Palvelukartta", "physician_cnt": "9" }, "geometry": { "type": "Point", "coordinates": [ 25.034490381671681, 60.274879132159079 ] } },
{ "type": "Feature", "properties": { "name_en": "Kannelmäki Health Station", "address_zip": "00420", "address_city_en": "Helsinki", "service_en": "health stations", "datanomistaja": "Palvelukartta", "physician_cnt": "16" }, "geometry": { "type": "Point", "coordinates": [ 24.879355037174342, 60.239240620466113 ] } },
{ "type": "Feature", "properties": { "name_en": "Lauttasaari Health Station", "address_zip": "00200", "address_city_en": "Helsinki", "service_en": "health stations", "datanomistaja": "Palvelukartta", "physician_cnt": "13" }, "geometry": { "type": "Point", "coordinates": [ 24.882812378704962, 60.161016908742035 ] } },
{ "type": "Feature", "properties": { "name_en": "Laakso Hospital Acute Wards", "address_zip": "00250", "address_city_en": "Helsinki", "service_en": "city or municipal hospitals", "datanomistaja": "Palvelukartta", "physician_cnt": "36" }, "geometry": { "type": "Point", "coordinates": [ 24.917477159115617, 60.193057343971795 ] } },
{ "type": "Feature", "properties": { "name_en": "Laakso Health Station", "address_zip": "00250", "address_city_en": "Helsinki", "service_en": "health stations", "datanomistaja": "Palvelukartta", "physician_cnt": "11" }, "geometry": { "type": "Point", "coordinates": [ 24.917477159115617, 60.193057343971795 ] } },
{ "type": "Feature", "properties": { "name_en": "Children's Castle", "address_zip": "00250", "address_city_en": "Helsinki", "service_en": "university hospitals", "datanomistaja": "Palvelukartta", "physician_cnt": "39" }, "geometry": { "type": "Point", "coordinates": [ 24.909749354852664, 60.185507578612238 ] } },
{ "type": "Feature", "properties": { "name_en": "Skin and Allergy Hospital", "address_zip": "00250", "address_city_en": "Helsinki", "service_en": "university hospitals", "datanomistaja": "Palvelukartta", "physician_cnt": "39" }, "geometry": { "type": "Point", "coordinates": [ 24.895143082940553, 60.191384225425217 ] } },
{ "type": "Feature", "properties": { "name_en": "Aurora hospital psychiatric services", "address_zip": "00250", "address_city_en": "Helsinki", "service_en": "city or municipal hospitals", "datanomistaja": "Palvelukartta", "physician_cnt": "36" }, "geometry": { "type": "Point", "coordinates": [ 24.927236682853412, 60.192482767624178 ] } },
{ "type": "Feature", "properties": { "name_en": "Health controls for young people", "address_zip": "00250", "address_city_en": "Helsinki", "service_en": "health stations", "datanomistaja": "Palvelukartta", "physician_cnt": "11" }, "geometry": { "type": "Point", "coordinates": [ 24.915345375850933, 60.184859189413125 ] } },
{ "type": "Feature", "properties": { "name_en": "HUS Medical Imaging Laakso Hospital's Clinical Neurophysiology", "address_zip": "00250", "address_city_en": "Helsinki", "service_en": "university hospitals", "datanomistaja": "Palvelukartta", "physician_cnt": "39" }, "geometry": { "type": "Point", "coordinates": [ 24.917902570422591, 60.191752654797909 ] } },
{ "type": "Feature", "properties": { "name_en": "Centralised contraceptive advice", "address_zip": "00580", "address_city_en": "Helsinki", "service_en": "health stations", "datanomistaja": "Palvelukartta", "physician_cnt": "15" }, "geometry": { "type": "Point", "coordinates": [ 24.980521366998648, 60.187826321509753 ] } },
{ "type": "Feature", "properties": { "name_en": "Pihlajamäki Health Station", "address_zip": "00710", "address_city_en": "Helsinki", "service_en": "health stations", "datanomistaja": "Palvelukartta", "physician_cnt": "6" }, "geometry": { "type": "Point", "coordinates": [ 25.009506208687927, 60.234269109739877 ] } },
{ "type": "Feature", "properties": { "name_en": "Kivikko Health Station", "address_zip": "00940", "address_city_en": "Helsinki", "service_en": "health stations", "datanomistaja": "Palvelukartta", "physician_cnt": "12" }, "geometry": { "type": "Point", "coordinates": [ 25.066421367226923, 60.236969934381769 ] } },
{ "type": "Feature", "properties": { "name_en": "Kontula Health Station", "address_zip": "00940", "address_city_en": "Helsinki", "service_en": "health stations", "datanomistaja": "Palvelukartta", "physician_cnt": "12" }, "geometry": { "type": "Point", "coordinates": [ 25.08407751265916, 60.237746976928591 ] } },
{ "type": "Feature", "properties": { "name_en": "Maunula Health Station", "address_zip": "00630", "address_city_en": "Helsinki", "service_en": "health stations", "datanomistaja": "Palvelukartta", "physician_cnt": "7" }, "geometry": { "type": "Point", "coordinates": [ 24.933015927565631, 60.234815023847382 ] } },
{ "type": "Feature", "properties": { "name_en": "Suursuo hospital", "address_zip": "00630", "address_city_en": "Helsinki", "service_en": "city or municipal hospitals", "datanomistaja": "Palvelukartta", "physician_cnt": "24" }, "geometry": { "type": "Point", "coordinates": [ 24.933015927565631, 60.234815023847382 ] } },
{ "type": "Feature", "properties": { "name_en": "Malminkartano Health Station", "address_zip": "00410", "address_city_en": "Helsinki", "service_en": "health stations", "datanomistaja": "Palvelukartta", "physician_cnt": "5" }, "geometry": { "type": "Point", "coordinates": [ 24.864177313136683, 60.247054109282317 ] } },
{ "type": "Feature", "properties": { "name_en": "Munkkiniemi Health Station", "address_zip": "00330", "address_city_en": "Helsinki", "service_en": "health stations", "datanomistaja": "Palvelukartta", "physician_cnt": "10" }, "geometry": { "type": "Point", "coordinates": [ 24.876303187726165, 60.201547884119044 ] } },
{ "type": "Feature", "properties": { "name_en": "Oulunkylä Health Station", "address_zip": "00640", "address_city_en": "Helsinki", "service_en": "health stations", "datanomistaja": "Palvelukartta", "physician_cnt": "16" }, "geometry": { "type": "Point", "coordinates": [ 24.963798176160033, 60.227764249762849 ] } },
{ "type": "Feature", "properties": { "name_en": "Laajasalo Health Station", "address_zip": "00840", "address_city_en": "Helsinki", "service_en": "health stations", "datanomistaja": "Palvelukartta", "physician_cnt": "7" }, "geometry": { "type": "Point", "coordinates": [ 25.055822001486248, 60.178677185762098 ] } },
{ "type": "Feature", "properties": { "name_en": "Töölö Health Station", "address_zip": "00260", "address_city_en": "Helsinki", "service_en": "health stations", "datanomistaja": "Palvelukartta", "physician_cnt": "29" }, "geometry": { "type": "Point", "coordinates": [ 24.918315961241195, 60.180953796306312 ] } },
{ "type": "Feature", "properties": { "name_en": "Psychiatrycenter", "address_zip": "00260", "address_city_en": "Helsinki", "service_en": "university hospitals", "datanomistaja": "Palvelukartta", "physician_cnt": "103" }, "geometry": { "type": "Point", "coordinates": [ 24.91870603428551, 60.17906471862667 ] } },
{ "type": "Feature", "properties": { "name_en": "Töölö Hospital", "address_zip": "00260", "address_city_en": "Helsinki", "service_en": "university hospitals", "datanomistaja": "Palvelukartta", "physician_cnt": "103" }, "geometry": { "type": "Point", "coordinates": [ 24.921533405992225, 60.180833637746218 ] } },
{ "type": "Feature", "properties": { "name_en": "Viiskulma Health Station", "address_zip": "00150", "address_city_en": "Helsinki", "service_en": "health stations", "datanomistaja": "Palvelukartta", "physician_cnt": "10" }, "geometry": { "type": "Point", "coordinates": [ 24.940793045173638, 60.160089564163066 ] } },
{ "type": "Feature", "properties": { "name_en": "Paloheinä Health Station", "address_zip": "00670", "address_city_en": "Helsinki", "service_en": "health stations", "datanomistaja": "Palvelukartta", "physician_cnt": "5" }, "geometry": { "type": "Point", "coordinates": [ 24.941352175565971, 60.249055156024482 ] } },
{ "type": "Feature", "properties": { "name_en": "Pitäjänmäki Health Station", "address_zip": "00370", "address_city_en": "Helsinki", "service_en": "health stations", "datanomistaja": "Palvelukartta", "physician_cnt": "8" }, "geometry": { "type": "Point", "coordinates": [ 24.853887638559765, 60.226193264824502 ] } },
{ "type": "Feature", "properties": { "name_en": "Jakomäki Health Station", "address_zip": "00770", "address_city_en": "Helsinki", "service_en": "health stations", "datanomistaja": "Palvelukartta", "physician_cnt": "6" }, "geometry": { "type": "Point", "coordinates": [ 25.075229325533289, 60.260171452344686 ] } },
{ "type": "Feature", "properties": { "name_en": "Surgical Hospital", "address_zip": "00130", "address_city_en": "Helsinki", "service_en": "university hospitals", "datanomistaja": "Palvelukartta", "physician_cnt": "47" }, "geometry": { "type": "Point", "coordinates": [ 24.949044388412606, 60.161573844440646 ] } },
{ "type": "Feature", "properties": { "name_en": "Meilahti Hospital", "address_zip": "00290", "address_city_en": "Helsinki", "service_en": "university hospitals", "datanomistaja": "Palvelukartta", "physician_cnt": "66" }, "geometry": { "type": "Point", "coordinates": [ 24.908270473062849, 60.190325561991592 ] } },
{ "type": "Feature", "properties": { "name_en": "Women's Hospital", "address_zip": "00290", "address_city_en": "Helsinki", "service_en": "university hospitals", "datanomistaja": "Palvelukartta", "physician_cnt": "66" }, "geometry": { "type": "Point", "coordinates": [ 24.910582195336698, 60.188862024150779 ] } },
{ "type": "Feature", "properties": { "name_en": "Haartman hospital", "address_zip": "00290", "address_city_en": "Helsinki", "service_en": "city or municipal hospitals", "datanomistaja": "Palvelukartta", "physician_cnt": "60" }, "geometry": { "type": "Point", "coordinates": [ 24.908270473062849, 60.190325561991592 ] } },
{ "type": "Feature", "properties": { "name_en": "HUS Medical Imaging Meilahti hospital's Clinical Neurophysiology", "address_zip": "00290", "address_city_en": "Helsinki", "service_en": "university hospitals", "datanomistaja": "Palvelukartta", "physician_cnt": "66" }, "geometry": { "type": "Point", "coordinates": [ 24.906033366391053, 60.18891598892111 ] } },
{ "type": "Feature", "properties": { "name_en": "HUS Medical Imaging Meilahti Hospital Nuclear Medicine Unit", "address_zip": "00290", "address_city_en": "Helsinki", "service_en": "university hospitals", "datanomistaja": "Palvelukartta", "physician_cnt": "66" }, "geometry": { "type": "Point", "coordinates": [ 24.903741485523184, 60.189499523245303 ] } },
{ "type": "Feature", "properties": { "name_en": "HUS Medical Imaging Meilahti Hospital MRI", "address_zip": "00290", "address_city_en": "Helsinki", "service_en": "university hospitals", "datanomistaja": "Palvelukartta", "physician_cnt": "66" }, "geometry": { "type": "Point", "coordinates": [ 24.906001329651836, 60.188852608547634 ] } },
{ "type": "Feature", "properties": { "name_en": "HUS Medical Imaging Meilahti Hospital clinical physiology", "address_zip": "00290", "address_city_en": "Helsinki", "service_en": "university hospitals", "datanomistaja": "Palvelukartta", "physician_cnt": "66" }, "geometry": { "type": "Point", "coordinates": [ 24.906035081338018, 60.188889069903418 ] } },
{ "type": "Feature", "properties": { "name_en": "HUS Medical Imaging New Children's Hospital Clinical Neurophysiology", "address_zip": "00290", "address_city_en": "Helsinki", "service_en": "university hospitals", "datanomistaja": "Palvelukartta", "physician_cnt": "66" }, "geometry": { "type": "Point", "coordinates": [ 24.90907902860685, 60.187823351181798 ] } },
{ "type": "Feature", "properties": { "name_en": "HUS Medical Imaging Women's Hospital Magnet (MRI)", "address_zip": "00290", "address_city_en": "Helsinki", "service_en": "university hospitals", "datanomistaja": "Palvelukartta", "physician_cnt": "66" }, "geometry": { "type": "Point", "coordinates": [ 24.910569880242228, 60.188772009784046 ] } },
{ "type": "Feature", "properties": { "name_en": "New Children's Hospital", "address_zip": "00290", "address_city_en": "Helsinki", "service_en": "university hospitals", "datanomistaja": "Palvelukartta", "physician_cnt": "66" }, "geometry": { "type": "Point", "coordinates": [ 24.910056171654787, 60.186922595469618 ] } },
{ "type": "Feature", "properties": { "name_en": "Herttoniemi hospital", "address_zip": "00800", "address_city_en": "Helsinki", "service_en": "city or municipal hospitals", "datanomistaja": "Palvelukartta", "physician_cnt": "39" }, "geometry": { "type": "Point", "coordinates": [ 25.037710582018942, 60.206612673432311 ] } },
{ "type": "Feature", "properties": { "name_en": "Myllypuro Health Station", "address_zip": "00920", "address_city_en": "Helsinki", "service_en": "health stations", "datanomistaja": "Palvelukartta", "physician_cnt": "21" }, "geometry": { "type": "Point", "coordinates": [ 25.076681766023562, 60.225865223182211 ] } },
{ "type": "Feature", "properties": { "name_en": "Kilo Health Centre", "address_zip": "02610", "address_city_en": "Espoo", "service_en": "health stations", "datanomistaja": "Palvelukartta", "physician_cnt": "11" }, "geometry": { "type": "Point", "coordinates": [ 24.785982589304957, 60.217981142388687 ] } },
{ "type": "Feature", "properties": { "name_en": "Viherlaakso Health Centre", "address_zip": "02710", "address_city_en": "Espoo", "service_en": "health stations", "datanomistaja": "Palvelukartta", "physician_cnt": "16" }, "geometry": { "type": "Point", "coordinates": [ 24.741442083420541, 60.227703657790492 ] } },
{ "type": "Feature", "properties": { "name_en": "Leppävaara Health Centre", "address_zip": "02650", "address_city_en": "Espoo", "service_en": "health stations", "datanomistaja": "Palvelukartta", "physician_cnt": "21" }, "geometry": { "type": "Point", "coordinates": [ 24.8139690743625, 60.221732915494634 ] } },
{ "type": "Feature", "properties": { "name_en": "Kalajärvi Health Centre", "address_zip": "02970", "address_city_en": "Espoo", "service_en": "health stations", "datanomistaja": "Palvelukartta", "physician_cnt": "1" }, "geometry": { "type": "Point", "coordinates": [ 24.74020857192702, 60.306162284649943 ] } },
{ "type": "Feature", "properties": { "name_en": "Kalajärvi Service Centre", "address_zip": "02970", "address_city_en": "Espoo", "service_en": "health stations", "datanomistaja": "Palvelukartta", "physician_cnt": "1" }, "geometry": { "type": "Point", "coordinates": [ 24.739389215221159, 60.305968697666906 ] } },
{ "type": "Feature", "properties": { "name_en": "Tapiola Health Centre", "address_zip": "02100", "address_city_en": "Espoo", "service_en": "health stations", "datanomistaja": "Palvelukartta", "physician_cnt": "21" }, "geometry": { "type": "Point", "coordinates": [ 24.797804194196001, 60.178467010877974 ] } },
{ "type": "Feature", "properties": { "name_en": "Samaria Health Centre", "address_zip": "02770", "address_city_en": "Espoo", "service_en": "health stations", "datanomistaja": "Palvelukartta", "physician_cnt": "36" }, "geometry": { "type": "Point", "coordinates": [ 24.653416399690411, 60.202469991236789 ] } },
{ "type": "Feature", "properties": { "name_en": "Jorvi Hospital", "address_zip": "02740", "address_city_en": "Espoo", "service_en": "university hospitals", "datanomistaja": "Palvelukartta", "physician_cnt": "145" }, "geometry": { "type": "Point", "coordinates": [ 24.68824383049116, 60.223005450583933 ] } },
{ "type": "Feature", "properties": { "name_en": "Espoo Hospital", "address_zip": "02740", "address_city_en": "Espoo", "service_en": "city or municipal hospitals", "datanomistaja": "Palvelukartta", "physician_cnt": "159" }, "geometry": { "type": "Point", "coordinates": [ 24.684224242682316, 60.22111184319391 ] } },
{ "type": "Feature", "properties": { "name_en": "HUS Medical Imaging Jorvi Hospital Clinical Neurophysiology", "address_zip": "02740", "address_city_en": "Espoo", "service_en": "university hospitals", "datanomistaja": "Palvelukartta", "physician_cnt": "145" }, "geometry": { "type": "Point", "coordinates": [ 24.687738633102438, 60.220436584245647 ] } },
{ "type": "Feature", "properties": { "name_en": "HUS Medical Imaging Jorvi Hospital Clinical Physiology and Nuclear Medicine", "address_zip": "02740", "address_city_en": "Espoo", "service_en": "university hospitals", "datanomistaja": "Palvelukartta", "physician_cnt": "145" }, "geometry": { "type": "Point", "coordinates": [ 24.687882699312699, 60.221723617140086 ] } },
{ "type": "Feature", "properties": { "name_en": "Iso Omena Health Centre", "address_zip": "02230", "address_city_en": "Espoo", "service_en": "health stations", "datanomistaja": "Palvelukartta", "physician_cnt": "12" }, "geometry": { "type": "Point", "coordinates": [ 24.739824106840967, 60.16045083003327 ] } },
{ "type": "Feature", "properties": { "name_en": "Iso Omena Service Centre", "address_zip": "02230", "address_city_en": "Espoo", "service_en": "health stations", "datanomistaja": "Palvelukartta", "physician_cnt": "12" }, "geometry": { "type": "Point", "coordinates": [ 24.740034318377461, 60.160014270773701 ] } },
{ "type": "Feature", "properties": { "name_en": "Espoonlahti Health Centre", "address_zip": "02320", "address_city_en": "Espoo", "service_en": "health stations", "datanomistaja": "Palvelukartta", "physician_cnt": "11" }, "geometry": { "type": "Point", "coordinates": [ 24.660702511624137, 60.148800742428342 ] } },
{ "type": "Feature", "properties": { "name_en": "Kivenlahti Health Centre", "address_zip": "02320", "address_city_en": "Espoo", "service_en": "health stations", "datanomistaja": "Palvelukartta", "physician_cnt": "11" }, "geometry": { "type": "Point", "coordinates": [ 24.635641449749343, 60.154814371695686 ] } },
{ "type": "Feature", "properties": { "name_en": "Peijas Hospital", "address_zip": "01400", "address_city_en": "Vantaa", "service_en": "university hospitals", "datanomistaja": "Palvelukartta", "physician_cnt": "224" }, "geometry": { "type": "Point", "coordinates": [ 25.061574251356756, 60.330576131229506 ] } },
{ "type": "Feature", "properties": { "name_en": "HUS Medical Imaging Peijas Hospital Clinical Physiology", "address_zip": "01400", "address_city_en": "Vantaa", "service_en": "university hospitals", "datanomistaja": "Palvelukartta", "physician_cnt": "224" }, "geometry": { "type": "Point", "coordinates": [ 25.059628047095821, 60.331320143515789 ] } },
{ "type": "Feature", "properties": { "name_en": "Länsimäki social and health centre", "address_zip": "01280", "address_city_en": "Vantaa", "service_en": "health stations", "datanomistaja": "Palvelukartta", "physician_cnt": "6" }, "geometry": { "type": "Point", "coordinates": [ 25.11264034889734, 60.24173989888881 ] } },
{ "type": "Feature", "properties": { "name_en": "Koivukylä Social and Health Centre", "address_zip": "01360", "address_city_en": "Vantaa", "service_en": "health stations", "datanomistaja": "Palvelukartta", "physician_cnt": "24" }, "geometry": { "type": "Point", "coordinates": [ 25.059441834725501, 60.319506827460572 ] } },
{ "type": "Feature", "properties": { "name_en": "Tikkurila Social and Health Centre", "address_zip": "01300", "address_city_en": "Vantaa", "service_en": "health stations", "datanomistaja": "Palvelukartta", "physician_cnt": "92" }, "geometry": { "type": "Point", "coordinates": [ 25.038285374726492, 60.292736684254017 ] } },
{ "type": "Feature", "properties": { "name_en": "Myyrmäki Social and Health Centre", "address_zip": "01600", "address_city_en": "Vantaa", "service_en": "health stations", "datanomistaja": "Palvelukartta", "physician_cnt": "50" }, "geometry": { "type": "Point", "coordinates": [ 24.856045945404098, 60.260872200642183 ] } },
{ "type": "Feature", "properties": { "name_en": "Hakunila Health Centre", "address_zip": "01200", "address_city_en": "Vantaa", "service_en": "health stations", "datanomistaja": "Palvelukartta", "physician_cnt": "12" }, "geometry": { "type": "Point", "coordinates": [ 25.105132304699307, 60.278510534099034 ] } },
{ "type": "Feature", "properties": { "name_en": "Martinlaakso Social and Health Centre", "address_zip": "01620", "address_city_en": "Vantaa", "service_en": "health stations", "datanomistaja": "Palvelukartta", "physician_cnt": "32" }, "geometry": { "type": "Point", "coordinates": [ 24.851295250655774, 60.277358384068648 ] } },
{ "type": "Feature", "properties": { "name_en": "Vantaa Hospital", "address_zip": "01760", "address_city_en": "Vantaa", "service_en": "city or municipal hospitals", "datanomistaja": "Palvelukartta", "physician_cnt": "66" }, "geometry": { "type": "Point", "coordinates": [ 24.872919010351985, 60.346508560553893 ] } },
{ "type": "Feature", "properties": { "name_en": "Kauniainen Health Centre", "address_zip": "02700", "address_city_en": "Kauniainen", "service_en": "health stations", "datanomistaja": "Palvelukartta", "physician_cnt": "9" }, "geometry": { "type": "Point", "coordinates": [ 24.716194465269584, 60.214471183282427 ] } }
]
}
